[{"OBJECT_NAME":"STARLINK-5804","OBJECT_ID":"2023-028AZ","EPOCH":"2026-03-09T18:09:41.726016","MEAN_MOTION":14.98330267,"ECCENTRICITY":0.0003375,"INCLINATION":70.0006,"RA_OF_ASC_NODE":204.3897,"ARG_OF_PERICENTER":266.9531,"MEAN_ANOMALY":93.1241,"EPHEMERIS_TYPE":0,"CLASSIFICATION_TYPE":"U","NORAD_CAT_ID":55788,"ELEMENT_SET_NO":999,"REV_AT_EPOCH":16703,"BSTAR":1.160347e-6,"MEAN_MOTION_DOT":-7.9e-7,"MEAN_MOTION_DDOT":0},{"OBJECT_NAME":"HAWK-8A","OBJECT_ID":"2024-066B","EPOCH":"2026-03-09T09:46:26.156352","MEAN_MOTION":14.98766556,"ECCENTRICITY":0.00042143,"INCLINATION":45.5937,"RA_OF_ASC_NODE":72.3645,"ARG_OF_PERICENTER":254.4969,"MEAN_ANOMALY":105.5447,"EPHEMERIS_TYPE":0,"CLASSIFICATION_TYPE":"U","NORAD_CAT_ID":59443,"ELEMENT_SET_NO":999,"REV_AT_EPOCH":10486,"BSTAR":0.0002089936,"MEAN_MOTION_DOT":2.325e-5,"MEAN_MOTION_DDOT":0}]
